NORAD_CAT_ID,OBJECT_NAME,OBJECT_TYPE,EPOCH,MEAN_MOTION,ECCENTRICITY,INCLINATION,RA_OF_ASC_NODE,ARG_OF_PERICENTER,MEAN_ANOMALY,BSTAR,MEAN_MOTION_DOT,MEAN_MOTION_DDOT,TLE_LINE0,TLE_LINE1,TLE_LINE2,SEMIMAJOR_AXIS,PERIOD,APOGEE,PERIGEE,DECAYED
53977.0,STARLINK-5094,PAYLOAD,2023-07-18 03:03:49,15.08832391,0.0001022,53.2159,233.8112,88.5731,271.5378,6.2621e-05,7.09e-06,0.0,0 STARLINK-5094,1 53977U 22125P   23199.12765767  .00000709  00000-0  62621-4 0  9995,2 53977  53.2159 233.8112 0001022  88.5731 271.5378 15.08832391 43690,6917.904,95.438,540.476,539.062,0.0
53977.0,STARLINK-5094,PAYLOAD,2023-07-19 09:16:09,15.0883723,0.0001045,53.2156,228.1609,87.8484,272.2628,1.7291e-06,-2.6e-06,0.0,0 STARLINK-5094,1 53977U 22125P   23200.38621971 -.00000260  00000-0  17291-5 0  9991,2 53977  53.2156 228.1609 0001045  87.8484 272.2628 15.08837230 43881,6917.889,95.438,540.477,539.031,0.0
53977.0,STARLINK-5094,PAYLOAD,2023-07-21 02:36:10,15.08839984,0.0001027,53.2155,220.428,89.3174,270.7936,7.9345e-05,9.75e-06,0.0,0 STARLINK-5094,1 53977U 22125P   23202.10845872  .00000975  00000-0  79345-4 0  9990,2 53977  53.2155 220.4280 0001027  89.3174 270.7936 15.08839984 44146,6917.88,95.438,540.456,539.035,0.0
53977.0,STARLINK-5094,PAYLOAD,2023-07-24 00:33:08,15.08841679,0.0001089,53.2158,207.3433,93.0581,267.0535,7.2382e-05,8.64e-06,0.0,0 STARLINK-5094,1 53977U 22125P   23205.02301734  .00000864  00000-0  72382-4 0  9999,2 53977  53.2158 207.3433 0001089  93.0581 267.0535 15.08841679 44514,6917.875,95.437,540.494,538.987,0.0
53977.0,STARLINK-5094,PAYLOAD,2023-07-25 00:23:56,15.08839568,5.5e-05,53.2154,202.8826,21.7559,338.3456,7.2602e-06,-1.72e-06,0.0,0 STARLINK-5094,1 53977U 22125P   23206.01662154 -.00000172  00000-0  72602-5 0  9994,2 53977  53.2154 202.8826 0000550  21.7559 338.3456 15.08839568 44665,6917.882,95.438,540.127,539.366,0.0
53977.0,STARLINK-5094,PAYLOAD,2023-07-26 03:25:29,15.08838759,0.0001078,53.2153,197.8277,87.1068,273.0048,1.6197e-05,-3e-07,0.0,0 STARLINK-5094,1 53977U 22125P   23207.14270270 -.00000030  00000-0  16197-4 0  9992,2 53977  53.2153 197.8277 0001078  87.1068 273.0048 15.08838759 44836,6917.884,95.438,540.495,539.003,0.0
53977.0,STARLINK-5094,PAYLOAD,2023-07-26 05:00:52,15.08837566,0.0001135,53.2151,197.5301,92.0261,268.0861,4.1765e-05,3.77e-06,0.0,0 STARLINK-5094,1 53977U 22125P   23207.20894295  .00000377  00000-0  41765-4 0  9990,2 53977  53.2151 197.5301 0001135  92.0261 268.0861 15.08837566 44914,6917.888,95.438,540.538,538.968,0.0
53977.0,STARLINK-5094,PAYLOAD,2023-07-27 08:02:25,15.08842026,8.8e-05,53.2144,192.4745,76.5074,283.6016,9.1696e-05,1.172e-05,0.0,0 STARLINK-5094,1 53977U 22125P   23208.33501982  .00001172  00000-0  91696-4 0  9995,2 53977  53.2144 192.4745 0000880  76.5074 283.6016 15.08842026 45088,6917.874,95.437,540.348,539.13,0.0
53977.0,STARLINK-5094,PAYLOAD,2023-07-27 23:56:18,15.08832929,0.0001597,53.2157,189.5047,74.8487,285.2682,-5.043e-06,-3.68e-06,0.0,0 STARLINK-5094,1 53977U 22125P   23208.99743172 -.00000368  00000-0 -50430-5 0  9996,2 53977  53.2157 189.5047 0001597  74.8487 285.2682 15.08832929 45188,6917.902,95.438,540.872,538.662,0.0
53977.0,STARLINK-5094,PAYLOAD,2023-07-28 07:53:13,15.08832773,0.0001241,53.2159,188.0153,89.8175,270.296,-3.2215e-06,-3.39e-06,0.0,0 STARLINK-5094,1 53977U 22125P   23209.32863195 -.00000339  00000-0 -32215-5 0  9991,2 53977  53.2159 188.0153 0001241  89.8175 270.2960 15.08832773 45166,6917.902,95.438,540.626,538.909,0.0
53977.0,STARLINK-5094,PAYLOAD,2023-07-29 02:57:51,15.08839123,0.0001284,53.2161,184.4471,87.9392,272.1747,8.0996e-06,-1.59e-06,0.0,0 STARLINK-5094,1 53977U 22125P   23210.12350957 -.00000159  00000-0  80996-5 0  9996,2 53977  53.2161 184.4471 0001284  87.9392 272.1747 15.08839123 45350,6917.883,95.438,540.636,538.86,0.0
53977.0,STARLINK-5094,PAYLOAD,2023-07-30 07:34:47,15.08838592,0.0001183,53.2156,179.0933,94.4722,265.6405,9.4636e-05,1.219e-05,0.0,0 STARLINK-5094,1 53977U 22125P   23211.31582865  .00001219  00000-0  94636-4 0  9995,2 53977  53.2156 179.0933 0001183  94.4722 265.6405 15.08838592 45532,6917.885,95.438,540.568,538.931,0.0
53977.0,STARLINK-5094,PAYLOAD,2023-08-01 02:30:12,15.08836163,0.0001373,53.2166,171.0625,102.5663,257.5483,-8.1938e-06,-4.18e-06,0.0,0 STARLINK-5094,1 53977U 22125P   23213.10431292 -.00000418  00000-0 -81938-5 0  9995,2 53977  53.2166 171.0625 0001373 102.5663 257.5483 15.08836163 45807,6917.892,95.438,540.707,538.807,0.0
53977.0,STARLINK-5094,PAYLOAD,2023-08-02 05:31:45,15.08839815,0.0001221,53.216,166.0089,99.8566,260.2564,5.8969e-05,6.51e-06,0.0,0 STARLINK-5094,1 53977U 22125P   23214.23039082  .00000651  00000-0  58969-4 0  9995,2 53977  53.2160 166.0089 0001221  99.8566 260.2564 15.08839815 45977,6917.881,95.438,540.591,538.901,0.0
53977.0,STARLINK-5094,PAYLOAD,2023-08-04 02:02:34,15.08833977,0.0001331,53.2163,157.6853,85.3988,274.7157,1.2637e-05,-8.7e-07,0.0,0 STARLINK-5094,1 53977U 22125P   23216.08512283 -.00000087  00000-0  12637-4 0  9995,2 53977  53.2163 157.6853 0001331  85.3988 274.7157 15.08833977 46258,6917.899,95.438,540.685,538.843,0.0
53977.0,STARLINK-5094,PAYLOAD,2023-08-05 05:04:07,15.08845589,0.0001356,53.2164,152.6271,85.2858,274.8289,5.0654e-05,5.18e-06,0.0,0 STARLINK-5094,1 53977U 22125P   23217.21119694  .00000518  00000-0  50654-4 0  9999,2 53977  53.2164 152.6271 0001356  85.2858 274.8289 15.08845589 46428,6917.863,95.437,540.666,538.79,0.0
53977.0,STARLINK-5094,PAYLOAD,2023-08-06 01:44:06,15.08858165,0.000124,53.2157,148.7608,110.395,249.7176,0.00021398,3.121e-05,0.0,0 STARLINK-5094,1 53977U 22125P   23218.07230022  .00003121  00000-0  21398-3 0  9998,2 53977  53.2157 148.7608 0001240 110.3950 249.7176 15.08858165 46559,6917.825,95.436,540.548,538.832,0.0
53977.0,STARLINK-5094,PAYLOAD,2023-08-06 12:51:50,15.08837635,0.0001145,53.2169,146.68,105.2429,254.869,3.9203e-05,3.36e-06,0.0,0 STARLINK-5094,1 53977U 22125P   23218.53599554  .00000336  00000-0  39203-4 0  9997,2 53977  53.2169 146.6800 0001145 105.2429 254.8690 15.08837635 46626,6917.888,95.438,540.545,538.961,0.0
53977.0,STARLINK-5094,PAYLOAD,2023-08-07 01:34:56,15.0882835,0.0001407,53.216,144.3008,109.9186,250.1958,-0.00013345,-2.41e-05,0.0,0 STARLINK-5094,1 53977U 22125P   23219.06593125 -.00002410  00000-0 -13345-3 0  9999,2 53977  53.2160 144.3008 0001407 109.9186 250.1958 15.08828350 46703,6917.916,95.438,540.754,538.808,0.0
53977.0,STARLINK-5094,PAYLOAD,2023-08-08 01:25:41,15.08852848,0.0001283,53.2158,139.8414,108.685,251.4281,0.00010333,1.358e-05,0.0,0 STARLINK-5094,1 53977U 22125P   23220.05951352  .00001358  00000-0  10333-3 0  9992,2 53977  53.2158 139.8414 0001283 108.6850 251.4281 15.08852848 46854,6917.841,95.437,540.594,538.819,0.0
53977.0,STARLINK-5094,PAYLOAD,2023-08-08 18:54:57,15.0884818,0.0001377,53.2155,136.5703,112.2904,247.8234,0.00053973,8.314e-05,0.0,0 STARLINK-5094,1 53977U 22125P   23220.78816227  .00008314  00000-0  53973-3 0  9999,2 53977  53.2155 136.5703 0001377 112.2904 247.8234 15.08848180 46964,6917.855,95.437,540.673,538.768,0.0
53977.0,STARLINK-5094,PAYLOAD,2023-08-09 10:48:48,15.08840077,0.0001731,53.2151,133.6,103.7163,256.4022,7.742e-05,9.44e-06,0.0,0 STARLINK-5094,1 53977U 22125P   23221.45056103  .00000944  00000-0  77420-4 0  9998,2 53977  53.2151 133.6000 0001731 103.7163 256.4022 15.08840077 47064,6917.88,95.438,540.943,538.548,0.0
53977.0,STARLINK-5094,PAYLOAD,2023-08-10 18:36:31,15.08839324,0.0001434,53.2169,127.6493,100.821,259.2944,9.0371e-06,-1.44e-06,0.0,0 STARLINK-5094,1 53977U 22125P   23222.77536343 -.00000144  00000-0  90371-5 0  9997,2 53977  53.2169 127.6493 0001434 100.8210 259.2944 15.08839324 47262,6917.882,95.438,540.739,538.755,0.0
53977.0,STARLINK-5094,PAYLOAD,2023-08-11 04:08:49,15.0884844,0.0001303,53.216,125.8669,102.43,257.6838,0.00017424,2.487e-05,0.0,0 STARLINK-5094,1 53977U 22125P   23223.17279767  .00002487  00000-0  17424-3 0  9993,2 53977  53.2160 125.8669 0001303 102.4300 257.6838 15.08848440 47321,6917.855,95.437,540.621,538.818,0.0
53977.0,STARLINK-5094,PAYLOAD,2023-08-12 02:24:14,15.08840729,0.0001278,53.2159,121.7011,82.4082,277.7055,8.1248e-05,1.005e-05,0.0,0 STARLINK-5094,1 53977U 22125P   23224.10016471  .00001005  00000-0  81248-4 0  9999,2 53977  53.2159 121.7011 0001278  82.4082 277.7055 15.08840729 47461,6917.878,95.438,540.627,538.859,0.0
53977.0,STARLINK-5094,PAYLOAD,2023-08-14 00:30:25,15.08843746,0.0001169,53.2146,113.0805,86.0899,274.0227,6.1182e-05,6.86e-06,0.0,0 STARLINK-5094,1 53977U 22125P   23226.02112530  .00000686  00000-0  61182-4 0  9994,2 53977  53.2146 113.0805 0001169  86.0899 274.0227 15.08843746 47752,6917.869,95.437,540.543,538.925,0.0
53977.0,STARLINK-5094,PAYLOAD,2023-08-15 01:56:35,15.08847564,0.0001355,53.216,108.3213,89.3849,270.7299,8.5246e-05,1.069e-05,0.0,0 STARLINK-5094,1 53977U 22125P   23227.08096352  .00001069  00000-0  85246-4 0  9997,2 53977  53.2160 108.3213 0001355  89.3849 270.7299 15.08847564 47918,6917.857,95.437,540.66,538.785,0.0
53977.0,STARLINK-5094,PAYLOAD,2023-08-16 01:47:22,15.08845821,0.0001404,53.2174,103.8596,96.3041,263.8111,0.00017312,2.469e-05,0.0,0 STARLINK-5094,1 53977U 22125P   23228.07456284  .00002469  00000-0  17312-3 0  9994,2 53977  53.2174 103.8596 0001404  96.3041 263.8111 15.08845821 48061,6917.863,95.437,540.699,538.756,0.0
53977.0,STARLINK-5094,PAYLOAD,2023-08-17 01:38:09,15.08842245,0.0001506,53.2168,99.3999,91.3247,268.7918,6.3718e-05,7.26e-06,0.0,0 STARLINK-5094,1 53977U 22125P   23229.06816750  .00000726  00000-0  63718-4 0  9998,2 53977  53.2168  99.3999 0001506  91.3247 268.7918 15.08842245 48219,6917.874,95.437,540.78,538.697,0.0
53977.0,STARLINK-5094,PAYLOAD,2023-08-18 17:22:48,15.08834236,0.0001424,53.2158,91.9663,98.931,261.1843,2.8856e-06,-2.42e-06,0.0,0 STARLINK-5094,1 53977U 22125P   23230.72417233 -.00000242  00000-0  28856-5 0  9995,2 53977  53.2158  91.9663 0001424  98.9310 261.1843 15.08834236 48469,6917.898,95.438,540.748,538.778,0.0
